[{"OBJECT_NAME":"OBJECT V","OBJECT_ID":"2023-085V","EPOCH":"2026-03-09T21:44:00.165408","MEAN_MOTION":15.30745852,"ECCENTRICITY":0.00069081,"INCLINATION":97.4843,"RA_OF_ASC_NODE":179.3833,"ARG_OF_PERICENTER":71.0503,"MEAN_ANOMALY":289.1485,"EPHEMERIS_TYPE":0,"CLASSIFICATION_TYPE":"U","NORAD_CAT_ID":57023,"ELEMENT_SET_NO":999,"REV_AT_EPOCH":15149,"BSTAR":0.00067780507,"MEAN_MOTION_DOT":0.00020109,"MEAN_MOTION_DDOT":0},{"OBJECT_NAME":"STARLINK-30898","OBJECT_ID":"2023-178P","EPOCH":"2026-03-09T05:11:01.515264","MEAN_MOTION":15.30219296,"ECCENTRICITY":9.359e-5,"INCLINATION":53.1618,"RA_OF_ASC_NODE":3.5166,"ARG_OF_PERICENTER":101.4769,"MEAN_ANOMALY":258.6337,"EPHEMERIS_TYPE":0,"CLASSIFICATION_TYPE":"U","NORAD_CAT_ID":58387,"ELEMENT_SET_NO":999,"REV_AT_EPOCH":12981,"BSTAR":0.00012138972,"MEAN_MOTION_DOT":3.24e-5,"MEAN_MOTION_DDOT":0}]
